STARLINK-31371          
1 58940U 24027K   24055.50001157 -.01759514  00000+0 -21566-1 0  9990
2 58940  53.1604 165.5833 0001173  75.3283 157.3170 15.62678969  3251
STARLINK-31345          
1 58941U 24027L   24055.50001157 -.01760207  00000+0 -21579-1 0  9996
2 58941  53.1603 165.5789 0000913  82.5314 152.0886 15.62677208  3269
STARLINK-31354          
1 58942U 24027M   24055.50001157 -.01760447  00000+0 -21584-1 0  9999
2 58942  53.1602 165.5745 0001091  89.9415 146.6530 15.62673592  3258
STARLINK-31346          
1 58943U 24027N   24055.50001157 -.01759812  00000+0 -21579-1 0  9998
2 58943  53.1601 165.5705 0000951  83.8782 154.6912 15.62670495  3205
STARLINK-31336          
1 58944U 24027P   24055.50001157 -.01760198  00000+0 -21587-1 0  9997
2 58944  53.1600 165.5655 0000951  81.0752 159.4689 15.62667325  3253
STARLINK-31359          
1 58945U 24027Q   24055.33334491 -.01157388  00000+0 -76641-2 0  9992
2 58945  53.1666 166.1536 0001741  74.9245  60.7909 15.77488297  3240
STARLINK-31331          
1 58946U 24027R   24055.50001157 -.01760740  00000+0 -21600-1 0  9998
2 58946  53.1601 165.5570 0000869  82.0954 162.3971 15.62661523  3166
STARLINK-31116          
1 58947U 24027S   24055.50001157 -.01758669  00000+0 -21574-1 0  9996
2 58947  53.1601 165.5531 0001013 108.2024 138.2634 15.62657391  2991
STARLINK-31311          
1 58948U 24027T   24055.50001157 -.01758255  00000+0 -21571-1 0  9995
2 58948  53.1601 165.5493 0001097 102.6361 145.8048 15.62653486  2942
STARLINK-31294          
1 58949U 24027U   24055.50001157 -.01757317  00000+0 -21563-1 0  9995
2 58949  53.1602 165.5469 0000950  84.7455 165.6712 15.62649081  3257
STARLINK-31287          
1 58950U 24027V   24055.50001157 -.00888424  27427-3 -15009-2 0  9995
2 58950  53.1642 164.1760 0001908  26.6677 172.0670 16.02014290  3008
STARLINK-31330          
1 58951U 24027W   24055.50001157 -.01759397  00000+0 -21598-1 0  9996
2 58951  53.1605 165.5354 0000947  99.5960 156.7425 15.62641530  3250
STARLINK-31293          
1 58952U 24027X   24055.50001157 -.01755279  00000+0 -21544-1 0  9993
2 58952  53.1606 165.5433 0000566  55.3972 196.9979 15.62641861  3156
STARLINK-31373          
1 58965U 24031A   24055.30586851 -.00278932  00000+0 -15094-2 0  9998
2 58965  53.1685 156.5354 0000575 142.2425 217.8638 15.80089152  2533
STARLINK-31449          
1 58966U 24031B   24055.30557579 -.00185413  00000+0 -98573-3 0  9999
2 58966  53.1687 156.5339 0000220 124.2172 235.8871 15.80213865  2534
STARLINK-31314          
1 58967U 24031C   24055.30521981 -.00277046  00000+0 -14932-2 0  9998
2 58967  53.1685 156.5309 0000806  64.4390 295.6716 15.80170436  2535
STARLINK-31356          
1 58968U 24031D   24055.30487431 -.00278082  00000+0 -14967-2 0  9999
2 58968  53.1690 156.5293 0000583   3.0414 357.0612 15.80204341  2533
STARLINK-31335          
1 58969U 24031E   24055.30449599 -.00594372  00000+0 -33189-2 0  9993
2 58969  53.1688 156.5261 0000657  55.1836 304.9248 15.80221657  2539
STARLINK-31368          
1 58970U 24031F   24055.30416627 -.00178219  00000+0 -94080-3 0  9997
2 58970  53.1692 156.5251 0000647 327.8696  32.2287 15.80345477  2538
STARLINK-31333          
1 58971U 24031G   24055.30378482 -.00198082  00000+0 -10481-2 0  9996
2 58971  53.1683 156.5220 0000677 344.9430  15.1572 15.80352796  2533
STARLINK-31351          
1 58972U 24031H   24055.30344918 -.00262613  00000+0 -14025-2 0  9994
2 58972  53.1685 156.5194 0000472  12.0883 348.0151 15.80331753  2535
