OBJECT_NAME,OBJECT_ID,EPOCH,MEAN_MOTION,ECCENTRICITY,INCLINATION,RA_OF_ASC_NODE,ARG_OF_PERICENTER,MEAN_ANOMALY,EPHEMERIS_TYPE,CLASSIFICATION_TYPE,NORAD_CAT_ID,ELEMENT_SET_NO,REV_AT_EPOCH,BSTAR,MEAN_MOTION_DOT,MEAN_MOTION_DDOT
STARLINK-31371,2024-027K,2024-02-24T12:00:00.999648,15.62678969,0.0001173,53.1604,165.5833,75.3283,157.317,0,U,58940,999,324,-0.021566,-0.01759514,0
STARLINK-31345,2024-027L,2024-02-24T12:00:00.999648,15.62677208,9.13e-05,53.1603,165.5789,82.5314,152.0886,0,U,58941,999,324,-0.021579,-0.01760207,0
STARLINK-31354,2024-027M,2024-02-24T12:00:00.999648,15.62673592,0.0001091,53.1602,165.5745,89.9415,146.653,0,U,58942,999,324,-0.021584,-0.01760447,0
STARLINK-31346,2024-027N,2024-02-24T12:00:00.999648,15.62670495,9.51e-05,53.1601,165.5705,83.8782,154.6912,0,U,58943,999,319,-0.021579,-0.01759812,0
STARLINK-31336,2024-027P,2024-02-24T12:00:00.999648,15.62667325,9.51e-05,53.16,165.5655,81.0752,159.4689,0,U,58944,999,324,-0.021587,-0.01760198,0
STARLINK-31359,2024-027Q,2024-02-24T08:00:01.000224,15.77488297,0.0001741,53.1666,166.1536,74.9245,60.7909,0,U,58945,999,321,-0.0076641,-0.01157388,0
STARLINK-31331,2024-027R,2024-02-24T12:00:00.999648,15.62661523,8.69e-05,53.1601,165.557,82.0954,162.3971,0,U,58946,999,315,-0.0216,-0.0176074,0
STARLINK-31116,2024-027S,2024-02-24T12:00:00.999648,15.62657391,0.0001013,53.1601,165.5531,108.2024,138.2634,0,U,58947,999,298,-0.021574,-0.01758669,0
STARLINK-31311,2024-027T,2024-02-24T12:00:00.999648,15.62653486,0.0001097,53.1601,165.5493,102.6361,145.8048,0,U,58948,999,293,-0.021571,-0.01758255,0
STARLINK-31294,2024-027U,2024-02-24T12:00:00.999648,15.62649081,9.5e-05,53.1602,165.5469,84.7455,165.6712,0,U,58949,999,324,-0.021563,-0.01757317,0
STARLINK-31287,2024-027V,2024-02-24T12:00:00.999648,16.0201429,0.0001908,53.1642,164.176,26.6677,172.067,0,U,58950,999,299,-0.0015009,-0.00888424,0.00027427
STARLINK-31330,2024-027W,2024-02-24T12:00:00.999648,15.6264153,9.47e-05,53.1605,165.5354,99.596,156.7425,0,U,58951,999,324,-0.021598,-0.01759397,0
STARLINK-31293,2024-027X,2024-02-24T12:00:00.999648,15.62641861,5.66e-05,53.1606,165.5433,55.3972,196.9979,0,U,58952,999,314,-0.021544,-0.01755279,0
STARLINK-31373,2024-031A,2024-02-24T07:20:27.039264,15.80089152,5.75e-05,53.1685,156.5354,142.2425,217.8638,0,U,58965,999,253,-0.0015094,-0.00278932,0
STARLINK-31449,2024-031B,2024-02-24T07:20:01.748256,15.80213865,2.2e-05,53.1687,156.5339,124.2172,235.8871,0,U,58966,999,253,-0.00098573,-0.00185413,0
STARLINK-31314,2024-031C,2024-02-24T07:19:30.991584,15.80170436,8.06e-05,53.1685,156.5309,64.439,295.6716,0,U,58967,999,253,-0.0014932,-0.00277046,0
STARLINK-31356,2024-031D,2024-02-24T07:19:01.140384,15.80204341,5.83e-05,53.169,156.5293,3.0414,357.0612,0,U,58968,999,248,-0.0014967,-0.00278082,0
STARLINK-31335,2024-031E,2024-02-24T07:18:28.453536,15.80221657,6.57e-05,53.1688,156.5261,55.1836,304.9248,0,U,58969,999,253,-0.0033189,-0.00594372,0
STARLINK-31368,2024-031F,2024-02-24T07:17:59.965728,15.80345477,6.47e-05,53.1692,156.5251,327.8696,32.2287,0,U,58970,999,253,-0.0009408,-0.00178219,0
STARLINK-31333,2024-031G,2024-02-24T07:17:27.008448,15.80352796,6.77e-05,53.1683,156.522,344.943,15.1572,0,U,58971,999,253,-0.0010481,-0.00198082,0
STARLINK-31351,2024-031H,2024-02-24T07:16:58.009152,15.80331753,4.72e-05,53.1685,156.5194,12.0883,348.0151,0,U,58972,999,253,-0.0014025,-0.00262613,0
